{"type": "FeatureCollection", "features": [ {"type": "Feature", "properties": {"norad_id": 40697, "name": "SENTINEL-2A", "group": "resource", "lat": 22.222556522157443, "lon": -115.26473705188921, "alt_km": 788.4273861915481, "timestamp": "2025-12-14T16:47:40.340197+00:00", "meta": {"OBJECT_NAME": "SENTINEL-2A", "OBJECT_ID": "2015-028A", "EPOCH": "2025-12-13T23:16:41.196864", "MEAN_MOTION": 14.30814077, "ECCENTRICITY": 0.00010916, "INCLINATION": 98.5687, "RA_OF_ASC_NODE": 60.4844, "ARG_OF_PERICENTER": 88.0028, "MEAN_ANOMALY": 272.128, "EPHEMERIS_TYPE": 0, "CLASSIFICATION_TYPE": "U", "NORAD_CAT_ID": 40697, "ELEMENT_SET_NO": 999, "REV_AT_EPOCH": 54724, "BSTAR": 0.00013409771, "MEAN_MOTION_DOT": 3.08e-06, "MEAN_MOTION_DDOT": 0}, "tle": {"line1": "1 40697U 15028A   25347.96992126  .00000308  00000+0  13410-3 0  9999", "line2": "2 40697  98.5687  60.4844 0001091  88.0028 272.1280 14.30814077547243"}}, "geometry": {"type": "Point", "coordinates": [-115.26473705188921, 22.222556522157443]}}, {"type": "Feature", "properties": {"norad_id": 40701, "name": "GAOFEN-8", "group": "resource", "lat": -62.53123120169546, "lon": -28.132405488451326, "alt_km": 460.5081187671658, "timestamp": "2025-12-14T16:47:40.340207+00:00", "meta": {"OBJECT_NAME": "GAOFEN-8", "OBJECT_ID": "2015-030A", "EPOCH": "2025-12-14T00:07:54.132096", "MEAN_MOTION": 15.38596257, "ECCENTRICITY": 0.00116963, "INCLINATION": 97.6912, "RA_OF_ASC_NODE": 166.2071, "ARG_OF_PERICENTER": 133.2533, "MEAN_ANOMALY": 226.969, "EPHEMERIS_TYPE": 0, "CLASSIFICATION_TYPE": "U", "NORAD_CAT_ID": 40701, "ELEMENT_SET_NO": 999, "REV_AT_EPOCH": 58290, "BSTAR": 0.00025608907, "MEAN_MOTION_DOT": 9.694e-05, "MEAN_MOTION_DDOT": 0}, "tle": {"line1": "1 40701U 15030A   25348.00548764  .00009694  00000+0  25609-3 0  9999", "line2": "2 40701  97.6912 166.2071 0011696 133.2533 226.9690 15.38596257582903"}}, "geometry": {"type": "Point", "coordinates": [-28.132405488451326, -62.53123120169546]}}, {"type": "Feature", "properties": {"norad_id": 40718, "name": "CARBONITE 1 (CBNT-1)", "group": "resource", "lat": 38.20945480963682, "lon": -4.2767769179887125, "alt_km": 609.3277278458891, "timestamp": "2025-12-14T16:47:40.340217+00:00", "meta": {"OBJECT_NAME": "CARBONITE 1 (CBNT-1)", "OBJECT_ID": "2015-032D", "EPOCH": "2025-12-13T23:57:47.006208", "MEAN_MOTION": 14.82756981, "ECCENTRICITY": 0.00145254, "INCLINATION": 97.6406, "RA_OF_ASC_NODE": 168.9871, "ARG_OF_PERICENTER": 177.0208, "MEAN_ANOMALY": 183.1095, "EPHEMERIS_TYPE": 0, "CLASSIFICATION_TYPE": "U", "NORAD_CAT_ID": 40718, "ELEMENT_SET_NO": 999, "REV_AT_EPOCH": 56189, "BSTAR": 0.00059464249, "MEAN_MOTION_DOT": 4.764e-05, "MEAN_MOTION_DDOT": 0}, "tle": {"line1": "1 40718U 15032D   25347.99846072  .00004764  00000+0  59464-3 0  9998", "line2": "2 40718  97.6406 168.9871 0014525 177.0208 183.1095 14.82756981561893"}}, "geometry": {"type": "Point", "coordinates": [-4.2767769179887125, 38.20945480963682]}}, {"type": "Feature", "properties": {"norad_id": 40878, "name": "YAOGAN-27", "group": "resource", "lat": 71.6639534233382, "lon": -169.23020802634386, "alt_km": 1198.600394154495, "timestamp": "2025-12-14T16:47:40.340227+00:00", "meta": {"OBJECT_NAME": "YAOGAN-27", "OBJECT_ID": "2015-040A", "EPOCH": "2025-12-13T23:50:24.308160", "MEAN_MOTION": 13.16059558, "ECCENTRICITY": 0.00076394, "INCLINATION": 100.1016, "RA_OF_ASC_NODE": 337.5567, "ARG_OF_PERICENTER": 283.7747, "MEAN_ANOMALY": 76.2517, "EPHEMERIS_TYPE": 0, "CLASSIFICATION_TYPE": "U", "NORAD_CAT_ID": 40878, "ELEMENT_SET_NO": 999, "REV_AT_EPOCH": 49330, "BSTAR": -0.00078733846, "MEAN_MOTION_DOT": -3.41e-06, "MEAN_MOTION_DDOT": 0}, "tle": {"line1": "1 40878U 15040A   25347.99333690 -.00000341  00000+0 -78734-3 0  9991", "line2": "2 40878 100.1016 337.5567 0007639 283.7747  76.2517 13.16059558493307"}}, "geometry": {"type": "Point", "coordinates": [-169.23020802634386, 71.6639534233382]}}, {"type": "Feature", "properties": {"norad_id": 40894, "name": "GAOFEN-9 01", "group": "resource", "lat": 59.13092939423443, "lon": 14.569022969733131, "alt_km": 599.155090037867, "timestamp": "2025-12-14T16:47:40.340237+00:00", "meta": {"OBJECT_NAME": "GAOFEN-9 01", "OBJECT_ID": "2015-047A", "EPOCH": "2025-12-14T00:19:36.160608", "MEAN_MOTION": 14.82426056, "ECCENTRICITY": 0.00283084, "INCLINATION": 97.6542, "RA_OF_ASC_NODE": 26.9141, "ARG_OF_PERICENTER": 30.2412, "MEAN_ANOMALY": 330.0428, "EPHEMERIS_TYPE": 0, "CLASSIFICATION_TYPE": "U", "NORAD_CAT_ID": 40894, "ELEMENT_SET_NO": 999, "REV_AT_EPOCH": 55275, "BSTAR": 0.00020700987, "MEAN_MOTION_DOT": 1.619e-05, "MEAN_MOTION_DDOT": 0}, "tle": {"line1": "1 40894U 15047A   25348.01361297  .00001619  00000+0  20701-3 0  9992", "line2": "2 40894  97.6542  26.9141 0028308  30.2412 330.0428 14.82426056552758"}}, "geometry": {"type": "Point", "coordinates": [14.569022969733131, 59.13092939423443]}}, {"type": "Feature", "properties": {"norad_id": 41026, "name": "YAOGAN-28", "group": "resource", "lat": 32.75666111758362, "lon": -48.84589957185839, "alt_km": 483.1361835526777, "timestamp": "2025-12-14T16:47:40.340247+00:00", "meta": {"OBJECT_NAME": "YAOGAN-28", "OBJECT_ID": "2015-064A", "EPOCH": "2025-12-14T00:23:56.947776", "MEAN_MOTION": 15.24383802, "ECCENTRICITY": 0.00123977, "INCLINATION": 97.2801, "RA_OF_ASC_NODE": 125.7725, "ARG_OF_PERICENTER": 121.9401, "MEAN_ANOMALY": 238.3044, "EPHEMERIS_TYPE": 0, "CLASSIFICATION_TYPE": "U", "NORAD_CAT_ID": 41026, "ELEMENT_SET_NO": 999, "REV_AT_EPOCH": 56244, "BSTAR": 0.0004338107, "MEAN_MOTION_DOT": 0.00010586, "MEAN_MOTION_DDOT": 0}, "tle": {"line1": "1 41026U 15064A   25348.01663134  .00010586  00000+0  43381-3 0  9996", "line2": "2 41026  97.2801 125.7725 0012397 121.9401 238.3044 15.24383802562442"}}, "geometry": {"type": "Point", "coordinates": [-48.84589957185839, 32.75666111758362]}}, {"type": "Feature", "properties": {"norad_id": 41038, "name": "YAOGAN-29", "group": "resource", "lat": -48.42482098093499, "lon": 21.026230100365122, "alt_km": 627.0438464409071, "timestamp": "2025-12-14T16:47:40.340258+00:00", "meta": {"OBJECT_NAME": "YAOGAN-29", "OBJECT_ID": "2015-069A", "EPOCH": "2025-12-14T00:49:15.369024", "MEAN_MOTION": 14.82886759, "ECCENTRICITY": 8.15e-06, "INCLINATION": 98.0224, "RA_OF_ASC_NODE": 11.2102, "ARG_OF_PERICENTER": 267.3119, "MEAN_ANOMALY": 92.8085, "EPHEMERIS_TYPE": 0, "CLASSIFICATION_TYPE": "U", "NORAD_CAT_ID": 41038, "ELEMENT_SET_NO": 999, "REV_AT_EPOCH": 54318, "BSTAR": 0.00017360759, "MEAN_MOTION_DOT": 1.353e-05, "MEAN_MOTION_DDOT": 0}, "tle": {"line1": "1 41038U 15069A   25348.03420566  .00001353  00000+0  17361-3 0  9997", "line2": "2 41038  98.0224  11.2102 0000081 267.3119  92.8085 14.82886759543189"}}, "geometry": {"type": "Point", "coordinates": [21.026230100365122, -48.42482098093499]}}, {"type": "Feature", "properties": {"norad_id": 41167, "name": "KENT RIDGE 1", "group": "resource", "lat": 9.332471478383843, "lon": -21.323068496545275, "alt_km": 491.19564884644933, "timestamp": "2025-12-14T16:47:40.340268+00:00", "meta": {"OBJECT_NAME": "KENT RIDGE 1", "OBJECT_ID": "2015-077B", "EPOCH": "2025-12-13T19:43:36.244128", "MEAN_MOTION": 15.21647812, "ECCENTRICITY": 0.00085203, "INCLINATION": 14.9785, "RA_OF_ASC_NODE": 203.1103, "ARG_OF_PERICENTER": 146.0561, "MEAN_ANOMALY": 214.0306, "EPHEMERIS_TYPE": 0, "CLASSIFICATION_TYPE": "U", "NORAD_CAT_ID": 41167, "ELEMENT_SET_NO": 999, "REV_AT_EPOCH": 55280, "BSTAR": 0.0002142112, "MEAN_MOTION_DOT": 5.749e-05, "MEAN_MOTION_DDOT": 0}, "tle": {"line1": "1 41167U 15077B   25347.82194727  .00005749  00000+0  21421-3 0  9997", "line2": "2 41167  14.9785 203.1103 0008520 146.0561 214.0306 15.21647812552806"}}, "geometry": {"type": "Point", "coordinates": [-21.323068496545275, 9.332471478383843]}}, {"type": "Feature", "properties": {"norad_id": 41194, "name": "GAOFEN-4", "group": "resource", "lat": 0.02083428781804512, "lon": 81.1599977118802, "alt_km": 35790.483786195866, "timestamp": "2025-12-14T16:47:40.340280+00:00", "meta": {"OBJECT_NAME": "GAOFEN-4", "OBJECT_ID": "2015-083A", "EPOCH": "2025-12-14T00:13:28.646976", "MEAN_MOTION": 1.00269074, "ECCENTRICITY": 0.0003374, "INCLINATION": 0.1737, "RA_OF_ASC_NODE": 81.3219, "ARG_OF_PERICENTER": 104.1648, "MEAN_ANOMALY": 6.4981, "EPHEMERIS_TYPE": 0, "CLASSIFICATION_TYPE": "U", "NORAD_CAT_ID": 41194, "ELEMENT_SET_NO": 999, "REV_AT_EPOCH": 3667, "BSTAR": 0, "MEAN_MOTION_DOT": -3.18e-06, "MEAN_MOTION_DDOT": 0}, "tle": {"line1": "1 41194U 15083A   25348.00935934 -.00000318  00000+0  00000+0 0  9992", "line2": "2 41194   0.1737  81.3219 0003374 104.1648   6.4981  1.00269074 36673"}}, "geometry": {"type": "Point", "coordinates": [81.1599977118802, 0.02083428781804512]}}, {"type": "Feature", "properties": {"norad_id": 41240, "name": "JASON-3", "group": "resource", "lat": 32.669253151015425, "lon": 170.270222679954, "alt_km": 1311.2086688151685, "timestamp": "2025-12-14T16:47:40.340291+00:00", "meta": {"OBJECT_NAME": "JASON-3", "OBJECT_ID": "2016-002A", "EPOCH": "2025-12-13T23:49:49.377504", "MEAN_MOTION": 12.87626595, "ECCENTRICITY": 0.00071455, "INCLINATION": 66.0391, "RA_OF_ASC_NODE": 155.1894, "ARG_OF_PERICENTER": 270.89, "MEAN_ANOMALY": 89.13, "EPHEMERIS_TYPE": 0, "CLASSIFICATION_TYPE": "U", "NORAD_CAT_ID": 41240, "ELEMENT_SET_NO": 999, "REV_AT_EPOCH": 46340, "BSTAR": 0.00017269966, "MEAN_MOTION_DOT": -1.9e-07, "MEAN_MOTION_DDOT": 0}, "tle": {"line1": "1 41240U 16002A   25347.99293261 -.00000019  00000+0  17270-3 0  9992", "line2": "2 41240  66.0391 155.1894 0007145 270.8900  89.1300 12.87626595463403"}}, "geometry": {"type": "Point", "coordinates": [170.270222679954, 32.669253151015425]}}]}